0 SJ-11-02
1 37765U 11039A   13282.17904169  .00000377  00000-0  88825-4 0  4284
2 37765 098.1997 045.1232 0011003 274.0171 085.9772 14.59660475117089
0 SJ-11-02
1 37765U 11039A   13282.52179017  .00000380  00000-0  89630-4 0  4299
2 37765 098.1998 045.4621 0011001 272.7798 087.2148 14.59660830117136
0 SJ-11-02
1 37765U 11039A   13282.79598891  .00000383  00000-0  90216-4 0  4300
2 37765 098.1999 045.7332 0010998 271.8796 088.1149 14.59661102117179
0 SJ-11-02
1 37765U 11039A   13283.13873747  .00000378  00000-0  89035-4 0  4317
2 37765 098.1999 046.0718 0010996 270.7691 089.2251 14.59661327117222
0 SJ-11-02
1 37765U 11039A   13283.34438650  .00000390  00000-0  91613-4 0  4320
2 37765 098.2000 046.2754 0011014 269.9526 090.0430 14.59661649117256
0 SJ-11-02
1 37765U 11039A   13283.61858494  .00000383  00000-0  90175-4 0  4326
2 37765 098.2000 046.5465 0011010 269.0763 090.9179 14.59661840117294
0 SJ-11-02
1 37765U 11039A   13283.82423388  .00000382  00000-0  90023-4 0  4331
2 37765 098.2001 046.7498 0010998 268.3688 091.6256 14.59662027117321
0 SJ-11-02
1 37765U 11039A   13284.16698237  .00000380  00000-0  89489-4 0  4349
2 37765 098.2001 047.0889 0011000 267.1805 092.8148 14.59662285117376
0 SJ-11-02
1 37765U 11039A   13284.50972991  .00000393  00000-0  92273-4 0  4359
2 37765 098.2002 047.4277 0011022 265.9831 094.0111 14.59662772117422
0 SJ-11-02
1 37765U 11039A   13285.46942379  .00000420  00000-0  97920-4 0  4380
2 37765 098.2005 048.3768 0011025 262.4520 097.5436 14.59663967117560
0 SJ-11-02
1 37765U 11039A   13285.81217134  .00000429  00000-0  99855-4 0  4392
2 37765 098.2005 048.7159 0011011 261.1228 098.8730 14.59664406117610
0 SJ-11-02
1 37765U 11039A   13286.15491915  .00000439  00000-0  10203-3 0  4403
2 37765 098.2006 049.0548 0011014 260.0174 099.9795 14.59664834117661
0 SJ-11-02
1 37765U 11039A   13286.49766621  .00000457  00000-0  10577-3 0  4414
2 37765 098.2008 049.3937 0011044 258.8368 101.1596 14.59665394117714
0 SJ-11-02
1 37765U 11039A   13286.84041351  .00000465  00000-0  10737-3 0  4427
2 37765 098.2009 049.7326 0011035 257.5518 102.4449 14.59665831117766
0 SJ-11-02
1 37765U 11039A   13287.18316108  .00000478  00000-0  11002-3 0  4431
2 37765 098.2009 050.0715 0011027 256.4712 103.5270 14.59666293117811
0 SJ-11-02
1 37765U 11039A   13287.52590783  .00000498  00000-0  11436-3 0  4446
2 37765 098.2009 050.4104 0011072 255.3029 104.6951 14.59666912117867
0 SJ-11-02
1 37765U 11039A   13287.80010532  .00000509  00000-0  11668-3 0  4457
2 37765 098.2009 050.6814 0011071 254.3594 105.6387 14.59667335117901
0 SJ-11-02
1 37765U 11039A   13288.14285262  .00000517  00000-0  11824-3 0  4463
2 37765 098.2008 051.0203 0011047 253.1960 106.8036 14.59667766117951
0 SJ-11-02
1 37765U 11039A   13288.48559911  .00000538  00000-0  12266-3 0  4470
2 37765 098.2009 051.3593 0011064 252.0484 107.9511 14.59668389118004
0 SJ-11-02
1 37765U 11039A   13288.82834587  .00000546  00000-0  12441-3 0  4488
2 37765 098.2008 051.6980 0011057 250.6935 109.3073 14.59668890118054
0 SJ-11-02
1 37765U 11039A   13289.17109280  .00000552  00000-0  12568-3 0  4490
2 37765 098.2008 052.0370 0011039 249.5699 110.4324 14.59669334118108
0 SJ-11-02
1 37765U 11039A   13289.51383905  .00000568  00000-0  12897-3 0  4500
2 37765 098.2008 052.3759 0011082 248.4444 111.5583 14.59669945118158
0 SJ-11-02
1 37765U 11039A   13289.85658536  .00000578  00000-0  13101-3 0  4513
2 37765 098.2009 052.7149 0011060 247.3234 112.6802 14.59670493118209
0 SJ-11-02
1 37765U 11039A   13290.13078262  .00000578  00000-0  13102-3 0  4520
2 37765 098.2009 052.9860 0011071 246.2484 113.7563 14.59670814118245
0 SJ-11-02
1 37765U 11039A   13290.33643031  .00000591  00000-0  13382-3 0  4530
2 37765 098.2010 053.1893 0011081 245.5953 114.4103 14.59671212118274
0 SJ-11-02
1 37765U 11039A   13290.61062710  .00000593  00000-0  13411-3 0  4546
2 37765 098.2009 053.4607 0011079 244.5982 115.4077 14.59671600118313
0 SJ-11-02
1 37765U 11039A   13290.81627472  .00000593  00000-0  13412-3 0  4552
2 37765 098.2008 053.6639 0011084 243.8977 116.1084 14.59671869118347
0 SJ-11-02
1 37765U 11039A   13291.15902088  .00000593  00000-0  13421-3 0  4560
2 37765 098.2010 054.0030 0011078 242.7912 117.2156 14.59672287118392
0 SJ-11-02
1 37765U 11039A   13291.50176661  .00000607  00000-0  13708-3 0  4574
2 37765 098.2011 054.3419 0011113 241.6598 118.3483 14.59672904118442
0 SJ-11-02
1 37765U 11039A   13291.84451248  .00000604  00000-0  13642-3 0  4583
2 37765 098.2009 054.6807 0011118 240.4839 119.5254 14.59673338118499
0 SJ-11-02
1 37765U 11039A   13292.18725844  .00000608  00000-0  13737-3 0  4597
2 37765 098.2010 055.0198 0011122 239.4245 120.5867 14.59673813118549
0 SJ-11-02
1 37765U 11039A   13292.53000368  .00000621  00000-0  14002-3 0  4606
2 37765 098.2010 055.3588 0011156 238.2976 121.7140 14.59674423118590
0 SJ-11-02
1 37765U 11039A   13292.80420002  .00000627  00000-0  14128-3 0  4613
2 37765 098.2010 055.6300 0011149 237.3265 122.6863 14.59674867118637
0 SJ-11-02
1 37765U 11039A   13293.14694557  .00000629  00000-0  14174-3 0  4623
2 37765 098.2011 055.9690 0011159 236.3270 123.6871 14.59675332118682
0 SJ-11-02
1 37765U 11039A   13293.48969068  .00000641  00000-0  14419-3 0  4639
2 37765 098.2012 056.3078 0011167 235.2614 124.7535 14.59675916118730
0 SJ-11-02
1 37765U 11039A   13293.83243586  .00000641  00000-0  14434-3 0  4646
2 37765 098.2013 056.6470 0011173 234.0067 126.0096 14.59676394118789
0 SJ-11-02
1 37765U 11039A   13294.17518133  .00000632  00000-0  14243-3 0  4656
2 37765 098.2014 056.9862 0011179 232.8123 127.2059 14.59676728118832
0 SJ-11-02
1 37765U 11039A   13294.51792607  .00000644  00000-0  14495-3 0  4667
2 37765 098.2014 057.3251 0011197 231.8396 128.1799 14.59677358118886
0 SJ-11-02
1 37765U 11039A   13294.86067090  .00000648  00000-0  14574-3 0  4679
2 37765 098.2015 057.6642 0011194 230.6433 129.3780 14.59677886118935
0 SJ-11-02
1 37765U 11039A   13295.13486689  .00000642  00000-0  14438-3 0  4683
2 37765 098.2015 057.9353 0011210 229.6244 130.3977 14.59678164118978
0 SJ-11-02
1 37765U 11039A   13295.47761140  .00000653  00000-0  14672-3 0  4691
2 37765 098.2016 058.2743 0011218 228.4902 131.5333 14.59678759119028
0 SJ-11-02
1 37765U 11039A   13295.82035604  .00000654  00000-0  14689-3 0  4700
2 37765 098.2017 058.6134 0011236 227.1650 132.8611 14.59679266119075
0 SJ-11-02
1 37765U 11039A   13296.16310070  .00000644  00000-0  14490-3 0  4711
2 37765 098.2017 058.9523 0011239 225.9668 134.0603 14.59679600119121
